[{"OBJECT_NAME":"STARLINK-30232","OBJECT_ID":"2023-096P","EPOCH":"2026-03-03T13:17:22.646976","MEAN_MOTION":16.02753938,"ECCENTRICITY":0.0024909,"INCLINATION":42.9711,"RA_OF_ASC_NODE":173.6749,"ARG_OF_PERICENTER":0.5692,"MEAN_ANOMALY":359.5211,"EPHEMERIS_TYPE":0,"CLASSIFICATION_TYPE":"U","NORAD_CAT_ID":57303,"ELEMENT_SET_NO":999,"REV_AT_EPOCH":14751,"BSTAR":0.0014272,"MEAN_MOTION_DOT":0.00922781,"MEAN_MOTION_DDOT":0.00042992},{"OBJECT_NAME":"STARLINK-30209","OBJECT_ID":"2023-096T","EPOCH":"2026-03-02T09:12:44.894880","MEAN_MOTION":16.25821908,"ECCENTRICITY":0.00231269,"INCLINATION":42.9575,"RA_OF_ASC_NODE":178.4941,"ARG_OF_PERICENTER":349.9616,"MEAN_ANOMALY":10.0807,"EPHEMERIS_TYPE":0,"CLASSIFICATION_TYPE":"U","NORAD_CAT_ID":57307,"ELEMENT_SET_NO":999,"REV_AT_EPOCH":14659,"BSTAR":0.0021000159,"MEAN_MOTION_DOT":0.07402874,"MEAN_MOTION_DDOT":9.250356e-6},{"OBJECT_NAME":"QIANKUN-1","OBJECT_ID":"2023-103B","EPOCH":"2026-03-03T07:04:05.280384","MEAN_MOTION":16.07673571,"ECCENTRICITY":0.0029965,"INCLINATION":96.1975,"RA_OF_ASC_NODE":114.2263,"ARG_OF_PERICENTER":170.448,"MEAN_ANOMALY":189.7382,"EPHEMERIS_TYPE":0,"CLASSIFICATION_TYPE":"U","NORAD_CAT_ID":57422,"ELEMENT_SET_NO":999,"REV_AT_EPOCH":15028,"BSTAR":1.8278e-6,"MEAN_MOTION_DOT":1.027e-5,"MEAN_MOTION_DDOT":1.6837e-6},{"OBJECT_NAME":"OBJECT B","OBJECT_ID":"2023-104B","EPOCH":"2026-03-03T18:34:19.462368","MEAN_MOTION":15.93048307,"ECCENTRICITY":0.0002129,"INCLINATION":97.2682,"RA_OF_ASC_NODE":151.1284,"ARG_OF_PERICENTER":315.376,"MEAN_ANOMALY":44.7343,"EPHEMERIS_TYPE":0,"CLASSIFICATION_TYPE":"U","NORAD_CAT_ID":57425,"ELEMENT_SET_NO":999,"REV_AT_EPOCH":14713,"BSTAR":0.00097502,"MEAN_MOTION_DOT":0.00338106,"MEAN_MOTION_DDOT":4.5785e-5},{"OBJECT_NAME":"SATORO-T2","OBJECT_ID":"2024-149K","EPOCH":"2026-03-02T19:47:35.050272","MEAN_MOTION":16.42460453,"ECCENTRICITY":0.00116018,"INCLINATION":97.3532,"RA_OF_ASC_NODE":155.3194,"ARG_OF_PERICENTER":281.1702,"MEAN_ANOMALY":78.8295,"EPHEMERIS_TYPE":0,"CLASSIFICATION_TYPE":"U","NORAD_CAT_ID":60477,"ELEMENT_SET_NO":999,"REV_AT_EPOCH":8663,"BSTAR":0.00050664225,"MEAN_MOTION_DOT":0.11883383,"MEAN_MOTION_DDOT":2.51825e-6},{"OBJECT_NAME":"RUZAEVKA 390 (RS44S)","OBJECT_ID":"2024-199AH","EPOCH":"2026-03-03T10:32:33.062784","MEAN_MOTION":16.01759118,"ECCENTRICITY":0.0001823,"INCLINATION":97.287,"RA_OF_ASC_NODE":304.2866,"ARG_OF_PERICENTER":158.3638,"MEAN_ANOMALY":201.7718,"EPHEMERIS_TYPE":0,"CLASSIFICATION_TYPE":"U","NORAD_CAT_ID":61766,"ELEMENT_SET_NO":999,"REV_AT_EPOCH":11852,"BSTAR":0.0017289,"MEAN_MOTION_DOT":0.00961673,"MEAN_MOTION_DDOT":0.00046616},{"OBJECT_NAME":"SZ-19 DEB","OBJECT_ID":"2024-194E","EPOCH":"2026-03-03T12:45:31.985280","MEAN_MOTION":16.13114509,"ECCENTRICITY":0.0013338,"INCLINATION":41.4593,"RA_OF_ASC_NODE":201.1962,"ARG_OF_PERICENTER":3.8145,"MEAN_ANOMALY":356.2812,"EPHEMERIS_TYPE":0,"CLASSIFICATION_TYPE":"U","NORAD_CAT_ID":63801,"ELEMENT_SET_NO":999,"REV_AT_EPOCH":4822,"BSTAR":0.00048449,"MEAN_MOTION_DOT":0.00597624,"MEAN_MOTION_DDOT":0.00020096},{"OBJECT_NAME":"UNICORN-2P","OBJECT_ID":"2025-052BT","EPOCH":"2026-03-02T15:53:23.407872","MEAN_MOTION":16.21197985,"ECCENTRICITY":0.00074413,"INCLINATION":97.3657,"RA_OF_ASC_NODE":322.3273,"ARG_OF_PERICENTER":165.4209,"MEAN_ANOMALY":194.7296,"EPHEMERIS_TYPE":0,"CLASSIFICATION_TYPE":"U","NORAD_CAT_ID":63981,"ELEMENT_SET_NO":999,"REV_AT_EPOCH":5408,"BSTAR":0.0043614637,"MEAN_MOTION_DOT":0.09021256,"MEAN_MOTION_DDOT":2.471348e-6},{"OBJECT_NAME":"COSMOS 2591","OBJECT_ID":"2025-182A","EPOCH":"2026-03-03T10:04:57.222336","MEAN_MOTION":15.9640634,"ECCENTRICITY":0.0007103,"INCLINATION":96.5909,"RA_OF_ASC_NODE":355.787,"ARG_OF_PERICENTER":180.7419,"MEAN_ANOMALY":179.385,"EPHEMERIS_TYPE":0,"CLASSIFICATION_TYPE":"U","NORAD_CAT_ID":65267,"ELEMENT_SET_NO":999,"REV_AT_EPOCH":3082,"BSTAR":0.00013372,"MEAN_MOTION_DOT":0.00055098,"MEAN_MOTION_DDOT":3.0133e-6},{"OBJECT_NAME":"COSMOS 2592","OBJECT_ID":"2025-182B","EPOCH":"2026-03-03T07:26:58.452864","MEAN_MOTION":15.96354432,"ECCENTRICITY":0.0005902,"INCLINATION":96.5918,"RA_OF_ASC_NODE":355.6378,"ARG_OF_PERICENTER":184.7662,"MEAN_ANOMALY":175.3562,"EPHEMERIS_TYPE":0,"CLASSIFICATION_TYPE":"U","NORAD_CAT_ID":65268,"ELEMENT_SET_NO":999,"REV_AT_EPOCH":3080,"BSTAR":1.2416e-5,"MEAN_MOTION_DOT":4.565e-5,"MEAN_MOTION_DDOT":1.8637e-6},{"OBJECT_NAME":"COSMOS 2593","OBJECT_ID":"2025-182C","EPOCH":"2026-03-03T07:49:34.276224","MEAN_MOTION":15.96303761,"ECCENTRICITY":0.0006982,"INCLINATION":96.5891,"RA_OF_ASC_NODE":355.6268,"ARG_OF_PERICENTER":177.1736,"MEAN_ANOMALY":182.9583,"EPHEMERIS_TYPE":0,"CLASSIFICATION_TYPE":"U","NORAD_CAT_ID":65269,"ELEMENT_SET_NO":999,"REV_AT_EPOCH":3080,"BSTAR":5.2294e-5,"MEAN_MOTION_DOT":0.00021068,"MEAN_MOTION_DDOT":2.0256e-6},{"OBJECT_NAME":"COSMOS 2594","OBJECT_ID":"2025-182D","EPOCH":"2026-03-03T09:42:24.037632","MEAN_MOTION":15.96432145,"ECCENTRICITY":0.0005973,"INCLINATION":96.5904,"RA_OF_ASC_NODE":355.6716,"ARG_OF_PERICENTER":168.5262,"MEAN_ANOMALY":191.6153,"EPHEMERIS_TYPE":0,"CLASSIFICATION_TYPE":"U","NORAD_CAT_ID":65270,"ELEMENT_SET_NO":999,"REV_AT_EPOCH":3083,"BSTAR":0.00025055,"MEAN_MOTION_DOT":0.00103806,"MEAN_MOTION_DDOT":5.9704e-6},{"OBJECT_NAME":"ISS OBJECT XK","OBJECT_ID":"1998-067XK","EPOCH":"2026-03-03T10:24:19.495872","MEAN_MOTION":16.05216946,"ECCENTRICITY":0.0005912,"INCLINATION":51.616,"RA_OF_ASC_NODE":79.7208,"ARG_OF_PERICENTER":55.9691,"MEAN_ANOMALY":304.1882,"EPHEMERIS_TYPE":0,"CLASSIFICATION_TYPE":"U","NORAD_CAT_ID":65731,"ELEMENT_SET_NO":999,"REV_AT_EPOCH":2589,"BSTAR":0.0013197,"MEAN_MOTION_DOT":0.0094034,"MEAN_MOTION_DDOT":0.00047493},{"OBJECT_NAME":"BOTAN","OBJECT_ID":"1998-067XP","EPOCH":"2026-03-03T07:18:10.974816","MEAN_MOTION":16.26065138,"ECCENTRICITY":0.0002926,"INCLINATION":51.604,"RA_OF_ASC_NODE":82.5602,"ARG_OF_PERICENTER":46.9281,"MEAN_ANOMALY":313.1984,"EPHEMERIS_TYPE":0,"CLASSIFICATION_TYPE":"U","NORAD_CAT_ID":65942,"ELEMENT_SET_NO":999,"REV_AT_EPOCH":2259,"BSTAR":0.0014503,"MEAN_MOTION_DOT":0.04760636,"MEAN_MOTION_DDOT":1.2041e-5},{"OBJECT_NAME":"CZ-4B R/B","OBJECT_ID":"2025-289B","EPOCH":"2026-03-03T13:40:21.298080","MEAN_MOTION":16.23473774,"ECCENTRICITY":0.0030486,"INCLINATION":97.5038,"RA_OF_ASC_NODE":140.7547,"ARG_OF_PERICENTER":49.521,"MEAN_ANOMALY":310.8729,"EPHEMERIS_TYPE":0,"CLASSIFICATION_TYPE":"U","NORAD_CAT_ID":66989,"ELEMENT_SET_NO":999,"REV_AT_EPOCH":1336,"BSTAR":0.00073831,"MEAN_MOTION_DOT":0.02035726,"MEAN_MOTION_DDOT":2.5114e-6},{"OBJECT_NAME":"ZK-1A R/B","OBJECT_ID":"2025-292K","EPOCH":"2026-03-03T12:28:28.083072","MEAN_MOTION":16.26168594,"ECCENTRICITY":0.0038219,"INCLINATION":97.6822,"RA_OF_ASC_NODE":149.2973,"ARG_OF_PERICENTER":57.9916,"MEAN_ANOMALY":302.508,"EPHEMERIS_TYPE":0,"CLASSIFICATION_TYPE":"U","NORAD_CAT_ID":67002,"ELEMENT_SET_NO":999,"REV_AT_EPOCH":1311,"BSTAR":0.0008921,"MEAN_MOTION_DOT":0.03352042,"MEAN_MOTION_DDOT":2.6507e-6}]
